[{"OBJECT_NAME":"ORBCOMM FM35","OBJECT_ID":"1999-065F","EPOCH":"2026-03-02T23:55:54.604128","MEAN_MOTION":14.37854906,"ECCENTRICITY":0.0003436,"INCLINATION":45.0401,"RA_OF_ASC_NODE":310.7845,"ARG_OF_PERICENTER":267.2899,"MEAN_ANOMALY":92.7557,"EPHEMERIS_TYPE":0,"CLASSIFICATION_TYPE":"U","NORAD_CAT_ID":25985,"ELEMENT_SET_NO":999,"REV_AT_EPOCH":37202,"BSTAR":0.00042873,"MEAN_MOTION_DOT":1.163e-5,"MEAN_MOTION_DDOT":0},{"OBJECT_NAME":"ORBCOMM FM34","OBJECT_ID":"1999-065G","EPOCH":"2026-03-03T02:33:25.309152","MEAN_MOTION":14.37769389,"ECCENTRICITY":0.0002921,"INCLINATION":45.0397,"RA_OF_ASC_NODE":310.7734,"ARG_OF_PERICENTER":209.8892,"MEAN_ANOMALY":150.179,"EPHEMERIS_TYPE":0,"CLASSIFICATION_TYPE":"U","NORAD_CAT_ID":25986,"ELEMENT_SET_NO":999,"REV_AT_EPOCH":37215,"BSTAR":0.00039271,"MEAN_MOTION_DOT":1.051e-5,"MEAN_MOTION_DDOT":0},{"OBJECT_NAME":"ORBCOMM FM38","OBJECT_ID":"2008-031A","EPOCH":"2026-03-02T15:34:46.697376","MEAN_MOTION":14.82694536,"ECCENTRICITY":0.0003863,"INCLINATION":48.4385,"RA_OF_ASC_NODE":162.2872,"ARG_OF_PERICENTER":74.9274,"MEAN_ANOMALY":285.207,"EPHEMERIS_TYPE":0,"CLASSIFICATION_TYPE":"U","NORAD_CAT_ID":33060,"ELEMENT_SET_NO":999,"REV_AT_EPOCH":95308,"BSTAR":0.00033364,"MEAN_MOTION_DOT":2.504e-5,"MEAN_MOTION_DDOT":0},{"OBJECT_NAME":"ORBCOMM FM41","OBJECT_ID":"2008-031B","EPOCH":"2026-03-02T16:32:29.134176","MEAN_MOTION":14.82230136,"ECCENTRICITY":0.00031907,"INCLINATION":48.4422,"RA_OF_ASC_NODE":170.8074,"ARG_OF_PERICENTER":54.8287,"MEAN_ANOMALY":94.8832,"EPHEMERIS_TYPE":0,"CLASSIFICATION_TYPE":"U","NORAD_CAT_ID":33061,"ELEMENT_SET_NO":999,"REV_AT_EPOCH":95256,"BSTAR":0.00032254413,"MEAN_MOTION_DOT":2.386e-5,"MEAN_MOTION_DDOT":0},{"OBJECT_NAME":"ORBCOMM FM29","OBJECT_ID":"2008-031C","EPOCH":"2026-03-02T15:00:00.190944","MEAN_MOTION":14.8240246,"ECCENTRICITY":0.0004793,"INCLINATION":48.4372,"RA_OF_ASC_NODE":178.5509,"ARG_OF_PERICENTER":55.8343,"MEAN_ANOMALY":317.907,"EPHEMERIS_TYPE":0,"CLASSIFICATION_TYPE":"U","NORAD_CAT_ID":33062,"ELEMENT_SET_NO":999,"REV_AT_EPOCH":95247,"BSTAR":0.00034717,"MEAN_MOTION_DOT":2.596e-5,"MEAN_MOTION_DDOT":0},{"OBJECT_NAME":"ORBCOMM FM39","OBJECT_ID":"2008-031D","EPOCH":"2026-03-02T18:49:27.162624","MEAN_MOTION":14.80786009,"ECCENTRICITY":0.00059576,"INCLINATION":48.4382,"RA_OF_ASC_NODE":205.0478,"ARG_OF_PERICENTER":24.0572,"MEAN_ANOMALY":336.0621,"EPHEMERIS_TYPE":0,"CLASSIFICATION_TYPE":"U","NORAD_CAT_ID":33063,"ELEMENT_SET_NO":999,"REV_AT_EPOCH":95210,"BSTAR":0.00033054113,"MEAN_MOTION_DOT":2.362e-5,"MEAN_MOTION_DDOT":0},{"OBJECT_NAME":"ORBCOMM FM37","OBJECT_ID":"2008-031E","EPOCH":"2026-03-02T15:41:53.940192","MEAN_MOTION":14.80979534,"ECCENTRICITY":0.0004417,"INCLINATION":48.4378,"RA_OF_ASC_NODE":193.7895,"ARG_OF_PERICENTER":44.2745,"MEAN_ANOMALY":329.2713,"EPHEMERIS_TYPE":0,"CLASSIFICATION_TYPE":"U","NORAD_CAT_ID":33064,"ELEMENT_SET_NO":999,"REV_AT_EPOCH":95234,"BSTAR":0.00032436,"MEAN_MOTION_DOT":2.325e-5,"MEAN_MOTION_DDOT":0},{"OBJECT_NAME":"ORBCOMM FM40","OBJECT_ID":"2008-031F","EPOCH":"2026-03-02T16:58:07.302144","MEAN_MOTION":14.83612807,"ECCENTRICITY":0.00052404,"INCLINATION":48.4397,"RA_OF_ASC_NODE":172.9223,"ARG_OF_PERICENTER":63.615,"MEAN_ANOMALY":80.1385,"EPHEMERIS_TYPE":0,"CLASSIFICATION_TYPE":"U","NORAD_CAT_ID":33065,"ELEMENT_SET_NO":999,"REV_AT_EPOCH":95252,"BSTAR":0.00038859217,"MEAN_MOTION_DOT":3.023e-5,"MEAN_MOTION_DDOT":0},{"OBJECT_NAME":"VESSELSAT 1","OBJECT_ID":"2011-058C","EPOCH":"2026-03-03T01:43:02.144640","MEAN_MOTION":14.11418703,"ECCENTRICITY":0.0013723,"INCLINATION":19.963,"RA_OF_ASC_NODE":327.2998,"ARG_OF_PERICENTER":154.1814,"MEAN_ANOMALY":205.9277,"EPHEMERIS_TYPE":0,"CLASSIFICATION_TYPE":"U","NORAD_CAT_ID":37840,"ELEMENT_SET_NO":999,"REV_AT_EPOCH":74292,"BSTAR":6.75e-5,"MEAN_MOTION_DOT":3.89e-6,"MEAN_MOTION_DDOT":0},{"OBJECT_NAME":"ORBCOMM FM109","OBJECT_ID":"2014-040A","EPOCH":"2026-03-02T19:13:42.541248","MEAN_MOTION":14.5870911,"ECCENTRICITY":0.0001144,"INCLINATION":47.002,"RA_OF_ASC_NODE":234.4234,"ARG_OF_PERICENTER":103.9114,"MEAN_ANOMALY":256.1899,"EPHEMERIS_TYPE":0,"CLASSIFICATION_TYPE":"U","NORAD_CAT_ID":40086,"ELEMENT_SET_NO":999,"REV_AT_EPOCH":61881,"BSTAR":0.0001761,"MEAN_MOTION_DOT":6.59e-6,"MEAN_MOTION_DDOT":0},{"OBJECT_NAME":"ORBCOMM FM107","OBJECT_ID":"2014-040B","EPOCH":"2026-03-02T21:13:57.579744","MEAN_MOTION":14.58792824,"ECCENTRICITY":7.21e-5,"INCLINATION":47.0035,"RA_OF_ASC_NODE":234.8828,"ARG_OF_PERICENTER":352.7101,"MEAN_ANOMALY":7.3774,"EPHEMERIS_TYPE":0,"CLASSIFICATION_TYPE":"U","NORAD_CAT_ID":40087,"ELEMENT_SET_NO":999,"REV_AT_EPOCH":61890,"BSTAR":0.00021939,"MEAN_MOTION_DOT":8.65e-6,"MEAN_MOTION_DDOT":0},{"OBJECT_NAME":"ORBCOMM FM106","OBJECT_ID":"2014-040C","EPOCH":"2026-03-02T03:07:15.482784","MEAN_MOTION":14.70278722,"ECCENTRICITY":0.00162807,"INCLINATION":47.0609,"RA_OF_ASC_NODE":39.6269,"ARG_OF_PERICENTER":189.3078,"MEAN_ANOMALY":170.7514,"EPHEMERIS_TYPE":0,"CLASSIFICATION_TYPE":"U","NORAD_CAT_ID":40088,"ELEMENT_SET_NO":999,"REV_AT_EPOCH":62142,"BSTAR":0.00023114265,"MEAN_MOTION_DOT":1.221e-5,"MEAN_MOTION_DDOT":0},{"OBJECT_NAME":"ORBCOMM FM111","OBJECT_ID":"2014-040D","EPOCH":"2026-03-02T14:07:10.022880","MEAN_MOTION":14.8828866,"ECCENTRICITY":0.0028412,"INCLINATION":46.9988,"RA_OF_ASC_NODE":211.6175,"ARG_OF_PERICENTER":349.4563,"MEAN_ANOMALY":10.5736,"EPHEMERIS_TYPE":0,"CLASSIFICATION_TYPE":"U","NORAD_CAT_ID":40089,"ELEMENT_SET_NO":999,"REV_AT_EPOCH":62869,"BSTAR":0.00041414,"MEAN_MOTION_DOT":3.679e-5,"MEAN_MOTION_DDOT":0},{"OBJECT_NAME":"ORBCOMM FM104","OBJECT_ID":"2014-040E","EPOCH":"2026-03-03T00:32:30.766848","MEAN_MOTION":14.57154629,"ECCENTRICITY":0.0016497,"INCLINATION":47.0044,"RA_OF_ASC_NODE":270.9856,"ARG_OF_PERICENTER":307.1942,"MEAN_ANOMALY":52.7437,"EPHEMERIS_TYPE":0,"CLASSIFICATION_TYPE":"U","NORAD_CAT_ID":40090,"ELEMENT_SET_NO":999,"REV_AT_EPOCH":61836,"BSTAR":0.00017452,"MEAN_MOTION_DOT":6.25e-6,"MEAN_MOTION_DDOT":0},{"OBJECT_NAME":"ORBCOMM FM103","OBJECT_ID":"2014-040F","EPOCH":"2026-03-02T19:17:04.045056","MEAN_MOTION":14.58695516,"ECCENTRICITY":0.0001284,"INCLINATION":47.0039,"RA_OF_ASC_NODE":235.9826,"ARG_OF_PERICENTER":8.6397,"MEAN_ANOMALY":351.4511,"EPHEMERIS_TYPE":0,"CLASSIFICATION_TYPE":"U","NORAD_CAT_ID":40091,"ELEMENT_SET_NO":999,"REV_AT_EPOCH":60185,"BSTAR":0.00020296,"MEAN_MOTION_DOT":7.85e-6,"MEAN_MOTION_DDOT":0},{"OBJECT_NAME":"ORBCOMM FM114","OBJECT_ID":"2015-081A","EPOCH":"2026-03-02T13:05:01.412736","MEAN_MOTION":14.58716063,"ECCENTRICITY":0.0001296,"INCLINATION":47.0042,"RA_OF_ASC_NODE":146.1443,"ARG_OF_PERICENTER":67.9752,"MEAN_ANOMALY":292.1272,"EPHEMERIS_TYPE":0,"CLASSIFICATION_TYPE":"U","NORAD_CAT_ID":41179,"ELEMENT_SET_NO":999,"REV_AT_EPOCH":54218,"BSTAR":0.00018992,"MEAN_MOTION_DOT":7.24e-6,"MEAN_MOTION_DDOT":0},{"OBJECT_NAME":"ORBCOMM FM119","OBJECT_ID":"2015-081B","EPOCH":"2026-03-03T00:34:02.870976","MEAN_MOTION":14.58659435,"ECCENTRICITY":8.68e-5,"INCLINATION":47.0007,"RA_OF_ASC_NODE":53.2406,"ARG_OF_PERICENTER":216.4293,"MEAN_ANOMALY":143.6534,"EPHEMERIS_TYPE":0,"CLASSIFICATION_TYPE":"U","NORAD_CAT_ID":41180,"ELEMENT_SET_NO":999,"REV_AT_EPOCH":54350,"BSTAR":0.00020726,"MEAN_MOTION_DOT":8.05e-6,"MEAN_MOTION_DDOT":0}]
